     3.04           N: GNSS NAV DATA    M: MIXED            RINEX VERSION / TYPE
ssrcrin-15.6.1x                         20250101 064500 UTC PGM / RUN BY / DATE 
    18                                                      LEAP SECONDS        
                                                            END OF HEADER       
S36 2025 01 01 06 51 12 0.000000000000E+00 0.000000000000E+00 2.838780000000E+05
     4.200368800000E+04 0.000000000000E+00 0.000000000000E+00 6.300000000000E+01
     3.674846960000E+03 0.000000000000E+00 0.000000000000E+00 3.276700000000E+04
     0.000000000000E+00 0.000000000000E+00 0.000000000000E+00 5.800000000000E+01
E03 2025 01 01 06 40 00-1.636886736378E-04-2.515321284591E-12 0.000000000000E+00
     9.100000000000E+01-1.589687500000E+02 2.805474002110E-09 3.781488136331E-01
    -7.309019565582E-06 2.408379223198E-04 1.159496605396E-05 5.440617664337E+03
     2.832000000000E+05 2.048909664154E-08 3.133278264016E-01 6.705522537231E-08
     9.635802366417E-01 9.271875000000E+01 9.357668226500E-01-5.231646490504E-09
     3.000124967247E-10 2.580000000000E+02 2.347000000000E+03
     3.120000000000E+00 0.000000000000E+00 6.984919309616E-10 0.000000000000E+00
     2.839400000000E+05
E16 2025 01 01 06 40 00-1.276936382055E-05-2.074784788419E-12 0.000000000000E+00
     9.100000000000E+01-1.412500000000E+01 3.219062658309E-09-1.866053100670E+00
    -6.090849637985E-07 2.367993583903E-04 6.766989827156E-06 5.440606658936E+03
     2.832000000000E+05-7.450580596924E-09 2.409613321290E+00 6.146728992462E-08
     9.661557039203E-01 1.973437500000E+02 2.251224773965E+00-5.375581057385E-09
    -5.810956335370E-10 2.580000000000E+02 2.347000000000E+03
     3.120000000000E+00 4.800000000000E+01-5.122274160385E-09 0.000000000000E+00
     2.839400000000E+05
E24 2025 01 01 06 40 00-1.187323068734E-03-2.134470378223E-11 0.000000000000E+00
     9.100000000000E+01-1.421875000000E+01 3.272279160705E-09-1.243268010189E-01
    -5.513429641724E-07 7.853965507820E-04 6.886199116707E-06 5.440610704422E+03
     2.832000000000E+05-6.519258022308E-08 2.416408935646E+00 1.862645149231E-08
     9.620718496056E-01 1.939062500000E+02 9.081606792804E-01-5.396296205969E-09
    -6.218116152354E-10 2.580000000000E+02 2.347000000000E+03
     3.120000000000E+00 0.000000000000E+00-6.286427378654E-09 0.000000000000E+00
     2.839400000000E+05
E25 2025 01 01 06 40 00 1.283152960241E-05 3.552713678801E-13 0.000000000000E+00
     9.100000000000E+01-1.565625000000E+01 3.291208520617E-09-3.806444421575E-01
    -7.022172212601E-07 2.108097542077E-04 6.727874279022E-06 5.440599733353E+03
     2.832000000000E+05 5.401670932770E-08 2.413733967994E+00 3.539025783539E-08
     9.642589574846E-01 1.973750000000E+02 3.849036681656E-01-5.431297663920E-09
    -5.682379551060E-10 2.580000000000E+02 2.347000000000E+03
     3.120000000000E+00 0.000000000000E+00 2.328306436539E-10 0.000000000000E+00
     2.839400000000E+05
E15 2025 01 01 06 40 00-1.484164386056E-04-2.273736754432E-12 0.000000000000E+00
     9.100000000000E+01 1.628750000000E+02 2.748685922373E-09-2.480069714733E+00
     7.728114724159E-06 4.392847185954E-04 1.002103090286E-06 5.440604896545E+03
     2.832000000000E+05-5.587935447693E-08-1.775819274869E+00 1.862645149231E-08
     9.996273544232E-01 3.373125000000E+02-1.175461335894E+00-5.644877988969E-09
     3.671581507536E-10 2.580000000000E+02 2.347000000000E+03
     3.120000000000E+00 0.000000000000E+00 2.561137080193E-09 0.000000000000E+00
     2.839400000000E+05
E13 2025 01 01 06 40 00-2.859759842977E-05-3.694822225953E-13 0.000000000000E+00
     9.100000000000E+01 1.525937500000E+02 2.634038289696E-09 2.936970631381E+00
     7.193535566330E-06 3.833250375465E-04 1.396983861923E-07 5.440612276077E+03
     2.832000000000E+05-4.656612873077E-08-1.775744350057E+00 5.401670932770E-08
     9.996709245123E-01 3.526562500000E+02-1.108003111131E+00-5.653092616856E-09
     3.703725703613E-10 2.580000000000E+02 2.347000000000E+03
     3.120000000000E+00 0.000000000000E+00 2.095475792885E-09 0.000000000000E+00
     2.839400000000E+05
E08 2025 01 01 06 40 00-3.932552644983E-04-6.167510946398E-12 0.000000000000E+00
     9.100000000000E+01-1.544062500000E+02 2.749400237841E-09-1.013253502990E-01
    -7.074326276779E-06 1.743409084156E-04 1.129880547523E-05 5.440619712830E+03
     2.832000000000E+05 4.470348358154E-08 3.141763115730E-01-2.607703208923E-08
     9.694188041386E-01 9.981250000000E+01 6.403613958168E-01-5.209502710984E-09
     2.450102056585E-10 2.580000000000E+02 2.347000000000E+03
     3.120000000000E+00 0.000000000000E+00-5.820766091347E-09 0.000000000000E+00
     2.839400000000E+05
S23 2025 01 01 06 52 48 0.000000000000E+00 0.000000000000E+00 2.839780000000E+05
     3.866796400000E+04 0.000000000000E+00 0.000000000000E+00 6.300000000000E+01
     1.681330800000E+04 0.000000000000E+00 0.000000000000E+00 3.276700000000E+04
     0.000000000000E+00 0.000000000000E+00 0.000000000000E+00 1.830000000000E+02
S36 2025 01 01 06 53 36 0.000000000000E+00 0.000000000000E+00 2.840300000000E+05
     4.200368800000E+04 0.000000000000E+00 0.000000000000E+00 6.300000000000E+01
     3.674846960000E+03 0.000000000000E+00 0.000000000000E+00 3.276700000000E+04
     0.000000000000E+00 0.000000000000E+00 0.000000000000E+00 5.900000000000E+01
E05 2025 01 01 06 40 00 4.815225896891E-03 3.296918293927E-12 0.000000000000E+00
     9.100000000000E+01-1.738125000000E+02 2.664396697103E-09-1.374647017006E+00
    -8.048489689827E-06 2.338748890907E-05 1.195445656776E-05 5.440620859146E+03
     2.832000000000E+05-2.421438694000E-08 3.133338419208E-01 3.539025783539E-08
     9.635944854638E-01 8.456250000000E+01-2.814302491269E+00-5.173072622096E-09
     2.978695503195E-10 5.170000000000E+02 2.347000000000E+03
     3.120000000000E+00 0.000000000000E+00-1.164153218269E-09 0.000000000000E+00
     2.840750000000E+05
S23 2025 01 01 06 54 56 0.000000000000E+00 0.000000000000E+00 2.841050000000E+05
     3.866796400000E+04 0.000000000000E+00 0.000000000000E+00 6.300000000000E+01
     1.681330800000E+04 0.000000000000E+00 0.000000000000E+00 3.276700000000E+04
     0.000000000000E+00 0.000000000000E+00 0.000000000000E+00 1.840000000000E+02
E05 2025 01 01 06 40 00 4.815224558115E-03 3.282707439212E-12 0.000000000000E+00
     9.100000000000E+01-1.738125000000E+02 2.664396697103E-09-1.374647017006E+00
    -8.048489689827E-06 2.338748890907E-05 1.195445656776E-05 5.440620859146E+03
     2.832000000000E+05-2.421438694000E-08 3.133338419208E-01 3.539025783539E-08
     9.635944854638E-01 8.456250000000E+01-2.814302491269E+00-5.173072622096E-09
     2.978695503195E-10 2.580000000000E+02 2.347000000000E+03
     3.120000000000E+00 0.000000000000E+00-1.164153218269E-09 0.000000000000E+00
     2.841400000000E+05
S36 2025 01 01 06 56 16 0.000000000000E+00 0.000000000000E+00 2.841860000000E+05
     4.200368800000E+04 0.000000000000E+00 0.000000000000E+00 6.300000000000E+01
     3.674846960000E+03 0.000000000000E+00 0.000000000000E+00 3.276700000000E+04
     0.000000000000E+00 0.000000000000E+00 0.000000000000E+00 6.000000000000E+01
S23 2025 01 01 06 57 04 0.000000000000E+00 0.000000000000E+00 2.842320000000E+05
     3.866796400000E+04 0.000000000000E+00 0.000000000000E+00 6.300000000000E+01
     1.681330800000E+04 0.000000000000E+00 0.000000000000E+00 3.276700000000E+04
     0.000000000000E+00 0.000000000000E+00 0.000000000000E+00 1.850000000000E+02
G15 2025 01 01 08 00 00 2.464228309691E-04 4.547473508865E-12 0.000000000000E+00
     6.500000000000E+01-1.168750000000E+02 4.923776523627E-09-1.947386837164E-01
    -5.977228283882E-06 1.611405389849E-02 9.411945939064E-06 5.153748502731E+03
     2.880000000000E+05-1.806765794754E-07 7.299086244240E-02 1.080334186554E-07
     9.380328300897E-01 1.875625000000E+02 1.386556921284E+00-8.420707899141E-09
     5.893102614235E-11 1.000000000000E+00 2.347000000000E+03 0.000000000000E+00
     2.000000000000E+00 0.000000000000E+00-1.024454832077E-08 6.500000000000E+01
     2.843160000000E+05 4.000000000000E+00
R18 2025 01 01 06 45 00 1.796968281269E-04 1.818989403546E-12 2.843100000000E+05
    -1.438865283203E+04 1.896793365479E+00 1.862645149231E-09 0.000000000000E+00
     2.523617675781E+03-2.147563934326E+00-1.862645149231E-09-3.000000000000E+00
     2.091807958984E+04 1.569943428040E+00-9.313225746155E-10 0.000000000000E+00
S36 2025 01 01 06 58 56 0.000000000000E+00 0.000000000000E+00 2.843380000000E+05
     4.200368800000E+04 0.000000000000E+00 0.000000000000E+00 6.300000000000E+01
     3.674846960000E+03 0.000000000000E+00 0.000000000000E+00 3.276700000000E+04
     0.000000000000E+00 0.000000000000E+00 0.000000000000E+00 6.100000000000E+01
S23 2025 01 01 06 59 12 0.000000000000E+00 0.000000000000E+00 2.843590000000E+05
     3.866796400000E+04 0.000000000000E+00 0.000000000000E+00 6.300000000000E+01
     1.681330800000E+04 0.000000000000E+00 0.000000000000E+00 3.276700000000E+04
     0.000000000000E+00 0.000000000000E+00 0.000000000000E+00 1.860000000000E+02
